NAVSTAR 77 (USA 289)    
1 43873U 18109A   24109.35569714  .00000065  00000+0  00000+0 0  9999
2 43873  55.2733 123.3905 0028537 195.7866 234.0842  2.00553424 39237
